{"fetched_at":"2026-07-16T17:46:46.090Z","source":"https://celestrak.org/NORAD/elements/gp.php?NAME=KINEIS&FORMAT=JSON","constellation":"kineis","records":[{"OBJECT_NAME":"KINEIS-1B","OBJECT_ID":"2024-114A","EPOCH":"2026-07-16T07:31:47.136000","CLASSIFICATION_TYPE":"U","MEAN_MOTION":14.80667803,"ECCENTRICITY":0.00028844,"INCLINATION":97.9828,"RA_OF_ASC_NODE":221.3601,"ARG_OF_PERICENTER":35.9579,"MEAN_ANOMALY":324.1826,"EPHEMERIS_TYPE":0,"NORAD_CAT_ID":60079,"ELEMENT_SET_NO":999,"REV_AT_EPOCH":11171,"BSTAR":0.000048475888,"MEAN_MOTION_DOT":0.0000032,"MEAN_MOTION_DDOT":0},{"OBJECT_NAME":"KINEIS-1C","OBJECT_ID":"2024-114C","EPOCH":"2026-07-16T06:42:54.237888","CLASSIFICATION_TYPE":"U","MEAN_MOTION":14.80669592,"ECCENTRICITY":0.00025833,"INCLINATION":97.9842,"RA_OF_ASC_NODE":221.1819,"ARG_OF_PERICENTER":93.4543,"MEAN_ANOMALY":266.6965,"EPHEMERIS_TYPE":0,"NORAD_CAT_ID":60081,"ELEMENT_SET_NO":999,"REV_AT_EPOCH":11168,"BSTAR":0.000047571284,"MEAN_MOTION_DOT":0.00000313,"MEAN_MOTION_DDOT":0},{"OBJECT_NAME":"KINEIS-1D","OBJECT_ID":"2024-114D","EPOCH":"2026-07-16T07:45:22.536000","CLASSIFICATION_TYPE":"U","MEAN_MOTION":14.76363263,"ECCENTRICITY":0.00029768,"INCLINATION":97.9879,"RA_OF_ASC_NODE":217.141,"ARG_OF_PERICENTER":96.2695,"MEAN_ANOMALY":263.8854,"EPHEMERIS_TYPE":0,"NORAD_CAT_ID":60082,"ELEMENT_SET_NO":999,"REV_AT_EPOCH":11142,"BSTAR":0.000046845457,"MEAN_MOTION_DOT":0.00000274,"MEAN_MOTION_DDOT":0},{"OBJECT_NAME":"KINEIS-1E","OBJECT_ID":"2024-114E","EPOCH":"2026-07-16T07:08:32.640000","CLASSIFICATION_TYPE":"U","MEAN_MOTION":14.80695108,"ECCENTRICITY":0.0004165,"INCLINATION":97.8944,"RA_OF_ASC_NODE":220.2567,"ARG_OF_PERICENTER":107.3065,"MEAN_ANOMALY":252.8603,"EPHEMERIS_TYPE":0,"NORAD_CAT_ID":60083,"ELEMENT_SET_NO":999,"REV_AT_EPOCH":11169,"BSTAR":0.000055172643,"MEAN_MOTION_DOT":0.00000372,"MEAN_MOTION_DDOT":0},{"OBJECT_NAME":"KINEIS-1A","OBJECT_ID":"2024-114F","EPOCH":"2026-07-16T06:19:23.953152","CLASSIFICATION_TYPE":"U","MEAN_MOTION":14.80683016,"ECCENTRICITY":0.0005343,"INCLINATION":97.8917,"RA_OF_ASC_NODE":220.3165,"ARG_OF_PERICENTER":59.9476,"MEAN_ANOMALY":300.2265,"EPHEMERIS_TYPE":0,"NORAD_CAT_ID":60084,"ELEMENT_SET_NO":999,"REV_AT_EPOCH":11169,"BSTAR":0.000048822657,"MEAN_MOTION_DOT":0.00000324,"MEAN_MOTION_DDOT":0},{"OBJECT_NAME":"KINEIS-3C","OBJECT_ID":"2024-172A","EPOCH":"2026-07-16T05:28:28.220160","CLASSIFICATION_TYPE":"U","MEAN_MOTION":14.72291485,"ECCENTRICITY":0.00026409,"INCLINATION":98.0437,"RA_OF_ASC_NODE":286.8194,"ARG_OF_PERICENTER":80.7367,"MEAN_ANOMALY":279.4139,"EPHEMERIS_TYPE":0,"NORAD_CAT_ID":61220,"ELEMENT_SET_NO":999,"REV_AT_EPOCH":9734,"BSTAR":0.00014299605,"MEAN_MOTION_DOT":0.00000854,"MEAN_MOTION_DDOT":0},{"OBJECT_NAME":"KINEIS-3D","OBJECT_ID":"2024-172B","EPOCH":"2026-07-15T04:50:47.807808","CLASSIFICATION_TYPE":"U","MEAN_MOTION":14.72286098,"ECCENTRICITY":0.0002402,"INCLINATION":98.0422,"RA_OF_ASC_NODE":285.8159,"ARG_OF_PERICENTER":86.013,"MEAN_ANOMALY":274.1352,"EPHEMERIS_TYPE":0,"NORAD_CAT_ID":61221,"ELEMENT_SET_NO":999,"REV_AT_EPOCH":9747,"BSTAR":0.000088302627,"MEAN_MOTION_DOT":0.00000508,"MEAN_MOTION_DDOT":0},{"OBJECT_NAME":"KINEIS-3E","OBJECT_ID":"2024-172C","EPOCH":"2026-07-16T04:54:11.620224","CLASSIFICATION_TYPE":"U","MEAN_MOTION":14.72278118,"ECCENTRICITY":0.00017427,"INCLINATION":98.0429,"RA_OF_ASC_NODE":286.7872,"ARG_OF_PERICENTER":88.0996,"MEAN_ANOMALY":272.0411,"EPHEMERIS_TYPE":0,"NORAD_CAT_ID":61222,"ELEMENT_SET_NO":999,"REV_AT_EPOCH":9762,"BSTAR":0.00014095958,"MEAN_MOTION_DOT":0.00000841,"MEAN_MOTION_DDOT":0},{"OBJECT_NAME":"KINEIS-3A","OBJECT_ID":"2024-172D","EPOCH":"2026-07-16T04:30:19.724256","CLASSIFICATION_TYPE":"U","MEAN_MOTION":14.7231137,"ECCENTRICITY":0.00021085,"INCLINATION":98.0425,"RA_OF_ASC_NODE":286.8689,"ARG_OF_PERICENTER":40.3327,"MEAN_ANOMALY":319.8036,"EPHEMERIS_TYPE":0,"NORAD_CAT_ID":61223,"ELEMENT_SET_NO":999,"REV_AT_EPOCH":9704,"BSTAR":0.00013747435,"MEAN_MOTION_DOT":0.00000819,"MEAN_MOTION_DDOT":0},{"OBJECT_NAME":"KINEIS-3B","OBJECT_ID":"2024-172E","EPOCH":"2026-07-16T04:05:19.446144","CLASSIFICATION_TYPE":"U","MEAN_MOTION":14.72297557,"ECCENTRICITY":0.00015391,"INCLINATION":98.042,"RA_OF_ASC_NODE":286.874,"ARG_OF_PERICENTER":26.0748,"MEAN_ANOMALY":334.0537,"EPHEMERIS_TYPE":0,"NORAD_CAT_ID":61224,"ELEMENT_SET_NO":999,"REV_AT_EPOCH":9761,"BSTAR":0.00013774065,"MEAN_MOTION_DOT":0.00000821,"MEAN_MOTION_DDOT":0},{"OBJECT_NAME":"KINEIS-5C","OBJECT_ID":"2024-219A","EPOCH":"2026-07-16T06:48:12.996864","CLASSIFICATION_TYPE":"U","MEAN_MOTION":14.72315255,"ECCENTRICITY":0.00042458,"INCLINATION":97.9068,"RA_OF_ASC_NODE":355.3318,"ARG_OF_PERICENTER":169.8267,"MEAN_ANOMALY":190.3028,"EPHEMERIS_TYPE":0,"NORAD_CAT_ID":62081,"ELEMENT_SET_NO":999,"REV_AT_EPOCH":8803,"BSTAR":0.000049230896,"MEAN_MOTION_DOT":0.00000263,"MEAN_MOTION_DDOT":0},{"OBJECT_NAME":"KINEIS-5D","OBJECT_ID":"2024-219B","EPOCH":"2026-07-16T07:26:12.277248","CLASSIFICATION_TYPE":"U","MEAN_MOTION":14.72494551,"ECCENTRICITY":0.00053729,"INCLINATION":97.9181,"RA_OF_ASC_NODE":355.4272,"ARG_OF_PERICENTER":164.305,"MEAN_ANOMALY":195.8325,"EPHEMERIS_TYPE":0,"NORAD_CAT_ID":62082,"ELEMENT_SET_NO":999,"REV_AT_EPOCH":8804,"BSTAR":0.000071631955,"MEAN_MOTION_DOT":0.00000406,"MEAN_MOTION_DDOT":0},{"OBJECT_NAME":"KINEIS-5E","OBJECT_ID":"2024-219C","EPOCH":"2026-07-16T06:14:13.343424","CLASSIFICATION_TYPE":"U","MEAN_MOTION":14.72299752,"ECCENTRICITY":0.00068518,"INCLINATION":97.9025,"RA_OF_ASC_NODE":355.4026,"ARG_OF_PERICENTER":161.3564,"MEAN_ANOMALY":198.7896,"EPHEMERIS_TYPE":0,"NORAD_CAT_ID":62083,"ELEMENT_SET_NO":999,"REV_AT_EPOCH":8804,"BSTAR":0.000045398167,"MEAN_MOTION_DOT":0.00000239,"MEAN_MOTION_DDOT":0},{"OBJECT_NAME":"KINEIS-5A","OBJECT_ID":"2024-219D","EPOCH":"2026-07-16T02:27:08.341632","CLASSIFICATION_TYPE":"U","MEAN_MOTION":14.72259718,"ECCENTRICITY":0.00037904,"INCLINATION":97.8966,"RA_OF_ASC_NODE":355.5282,"ARG_OF_PERICENTER":196.4864,"MEAN_ANOMALY":163.6221,"EPHEMERIS_TYPE":0,"NORAD_CAT_ID":62084,"ELEMENT_SET_NO":999,"REV_AT_EPOCH":8802,"BSTAR":0.00020790097,"MEAN_MOTION_DOT":0.00001265,"MEAN_MOTION_DDOT":0},{"OBJECT_NAME":"KINEIS-5B","OBJECT_ID":"2024-219E","EPOCH":"2026-07-16T06:53:07.694304","CLASSIFICATION_TYPE":"U","MEAN_MOTION":14.78386515,"ECCENTRICITY":0.00025552,"INCLINATION":98.0091,"RA_OF_ASC_NODE":0.9568,"ARG_OF_PERICENTER":143.2383,"MEAN_ANOMALY":216.9004,"EPHEMERIS_TYPE":0,"NORAD_CAT_ID":62085,"ELEMENT_SET_NO":999,"REV_AT_EPOCH":8830,"BSTAR":0.000069751764,"MEAN_MOTION_DOT":0.00000456,"MEAN_MOTION_DDOT":0},{"OBJECT_NAME":"KINEIS-2C","OBJECT_ID":"2025-028B","EPOCH":"2026-07-16T02:45:48.301632","CLASSIFICATION_TYPE":"U","MEAN_MOTION":14.73430533,"ECCENTRICITY":0.00043104,"INCLINATION":98.123,"RA_OF_ASC_NODE":251.5395,"ARG_OF_PERICENTER":156.8322,"MEAN_ANOMALY":203.3081,"EPHEMERIS_TYPE":0,"NORAD_CAT_ID":62929,"ELEMENT_SET_NO":999,"REV_AT_EPOCH":7687,"BSTAR":0.00011963647,"MEAN_MOTION_DOT":0.00000725,"MEAN_MOTION_DDOT":0}]}
