KINEIS-1B               
1 60079U 24114A   26197.31374000  .00000320  00000+0  48476-4 0  9994
2 60079  97.9828 221.3601 0002884  35.9579 324.1826 14.80667803111712
KINEIS-1C               
1 60081U 24114C   26197.27979442  .00000313  00000+0  47571-4 0  9990
2 60081  97.9842 221.1819 0002583  93.4543 266.6965 14.80669592111683
KINEIS-1D               
1 60082U 24114D   26197.32317750  .00000274  00000+0  46845-4 0  9994
2 60082  97.9879 217.1410 0002976  96.2695 263.8854 14.76363263111420
KINEIS-1E               
1 60083U 24114E   26197.29760000  .00000372  00000+0  55173-4 0  9994
2 60083  97.8944 220.2567 0004165 107.3065 252.8603 14.80695108111698
KINEIS-1A               
1 60084U 24114F   26197.26347168  .00000324  00000+0  48823-4 0  9999
2 60084  97.8917 220.3165 0005343  59.9476 300.2265 14.80683016111698
KINEIS-3C               
1 61220U 24172A   26197.22810440  .00000854  00000+0  14300-3 0  9990
2 61220  98.0437 286.8194 0002640  80.7367 279.4139 14.72291485 97346
KINEIS-3D               
1 61221U 24172B   26196.20194222  .00000508  00000+0  88303-4 0  9992
2 61221  98.0422 285.8159 0002402  86.0130 274.1352 14.72286098 97471
KINEIS-3E               
1 61222U 24172C   26197.20430116  .00000841  00000+0  14096-3 0  9996
2 61222  98.0429 286.7872 0001742  88.0996 272.0411 14.72278118 97623
KINEIS-3A               
1 61223U 24172D   26197.18772829  .00000819  00000+0  13747-3 0  9991
2 61223  98.0425 286.8689 0002108  40.3327 319.8036 14.72311370 97040
KINEIS-3B               
1 61224U 24172E   26197.17036396  .00000821  00000+0  13774-3 0  9996
2 61224  98.0420 286.8740 0001539  26.0748 334.0537 14.72297557 97617
KINEIS-5C               
1 62081U 24219A   26197.28348376  .00000263  00000+0  49231-4 0  9994
2 62081  97.9068 355.3318 0004245 169.8267 190.3028 14.72315255 88037
KINEIS-5D               
1 62082U 24219B   26197.30986432  .00000406  00000+0  71632-4 0  9998
2 62082  97.9181 355.4272 0005372 164.3050 195.8325 14.72494551 88044
KINEIS-5E               
1 62083U 24219C   26197.25987666  .00000239  00000+0  45398-4 0  9997
2 62083  97.9025 355.4026 0006851 161.3564 198.7896 14.72299752 88040
KINEIS-5A               
1 62084U 24219D   26197.10217988  .00001265  00000+0  20790-3 0  9993
2 62084  97.8966 355.5282 0003790 196.4864 163.6221 14.72259718 88029
KINEIS-5B               
1 62085U 24219E   26197.28689461  .00000456  00000+0  69752-4 0  9995
2 62085  98.0091   0.9568 0002555 143.2383 216.9004 14.78386515 88308
KINEIS-2C               
1 62929U 25028B   26197.11514238  .00000725  00000+0  11964-3 0  9992
2 62929  98.1230 251.5395 0004310 156.8322 203.3081 14.73430533 76876
